NORAD_CAT_ID,OBJECT_NAME,OBJECT_TYPE,EPOCH,MEAN_MOTION,ECCENTRICITY,INCLINATION,RA_OF_ASC_NODE,ARG_OF_PERICENTER,MEAN_ANOMALY,BSTAR,MEAN_MOTION_DOT,MEAN_MOTION_DDOT,TLE_LINE0,TLE_LINE1,TLE_LINE2,SEMIMAJOR_AXIS,PERIOD,APOGEE,PERIGEE,DECAYED
56484.0,STARLINK-6221,PAYLOAD,2023-06-24 06:03:16,15.69908538,0.0002892,69.9998,120.1067,263.8706,96.216,-2.279e-05,-2.95e-05,0.0,0 STARLINK-6221,1 56484U 23064AN  23175.25226885 -.00002950  00000-0 -22790-4 0  9990,2 56484  69.9998 120.1067 0002892 263.8706  96.2160 15.69908538  7363,6737.296,91.725,361.109,357.212,0.0
56484.0,STARLINK-6221,PAYLOAD,2023-06-24 22:52:31,15.69928036,0.000347,69.9982,118.134,265.9604,94.1195,1.1861e-05,1.214e-05,0.0,0 STARLINK-6221,1 56484U 23064AN  23175.95314279  .00001214  00000-0  11861-4 0  9999,2 56484  69.9982 118.1340 0003470 265.9604  94.1195 15.69928036  7472,6737.24,91.724,361.443,356.767,0.0
56484.0,STARLINK-6221,PAYLOAD,2023-06-25 06:31:17,15.69919969,0.0003624,69.9997,117.2391,261.135,98.9435,-2.378e-06,-4.99e-06,0.0,0 STARLINK-6221,1 56484U 23064AN  23176.27172712 -.00000499  00000-0 -23780-5 0  9999,2 56484  69.9997 117.2391 0003624 261.1350  98.9435 15.69919969  7521,6737.263,91.724,361.57,356.686,0.0
56484.0,STARLINK-6221,PAYLOAD,2023-06-26 05:27:34,15.69935739,0.000358,69.9992,114.5523,271.0047,89.0739,4.0507e-05,4.663e-05,0.0,0 STARLINK-6221,1 56484U 23064AN  23177.22747729  .00004663  00000-0  40507-4 0  9991,2 56484  69.9992 114.5523 0003580 271.0047  89.0739 15.69935739  7674,6737.218,91.723,361.495,356.671,0.0
56484.0,STARLINK-6221,PAYLOAD,2023-06-26 13:06:20,15.69922796,0.0003626,69.9994,113.6563,266.7673,93.3108,1.8089e-05,1.963e-05,0.0,0 STARLINK-6221,1 56484U 23064AN  23177.54606517  .00001963  00000-0  18089-4 0  9995,2 56484  69.9994 113.6563 0003626 266.7673  93.3108 15.69922796  7720,6737.255,91.724,361.563,356.677,0.0
56484.0,STARLINK-6221,PAYLOAD,2023-06-28 04:51:53,15.69922898,0.0003586,69.9988,108.9981,269.1347,90.9438,1.9172e-05,2.093e-05,0.0,0 STARLINK-6221,1 56484U 23064AN  23179.20270078  .00002093  00000-0  19172-4 0  9998,2 56484  69.9988 108.9981 0003586 269.1347  90.9438 15.69922898  7984,6737.255,91.724,361.536,356.704,0.0
56484.0,STARLINK-6221,PAYLOAD,2023-06-29 05:19:54,15.69929196,0.0003639,69.9986,106.1323,271.8342,88.2436,5.2365e-06,4.17e-06,0.0,0 STARLINK-6221,1 56484U 23064AN  23180.22216397  .00000417  00000-0  52365-5 0  9996,2 56484  69.9986 106.1323 0003639 271.8342  88.2436 15.69929196  8141,6737.237,91.724,361.553,356.65,0.0
56484.0,STARLINK-6221,PAYLOAD,2023-06-30 11:54:58,15.69915758,0.0003109,69.9986,102.5495,271.025,89.059,-9.2223e-06,-1.321e-05,0.0,0 STARLINK-6221,1 56484U 23064AN  23181.49650512 -.00001321  00000-0 -92223-5 0  9991,2 56484  69.9986 102.5495 0003109 271.0250  89.0590 15.69915758  8344,6737.275,91.725,361.235,357.045,0.0
56484.0,STARLINK-6221,PAYLOAD,2023-07-01 06:15:59,15.69918681,0.0003688,69.9983,100.3991,262.7882,97.2894,1.0706e-06,-8.4e-07,0.0,0 STARLINK-6221,1 56484U 23064AN  23182.26110368 -.00000084  00000-0  10706-5 0  9997,2 56484  69.9983 100.3991 0003688 262.7882  97.2894 15.69918681  8467,6737.267,91.724,361.616,356.647,0.0
56484.0,STARLINK-6221,PAYLOAD,2023-07-02 05:12:16,15.69927916,0.0003475,69.9988,97.7128,266.0296,94.0502,2.1511e-05,2.375e-05,0.0,0 STARLINK-6221,1 56484U 23064AN  23183.21685247  .00002375  00000-0  21511-4 0  9995,2 56484  69.9988  97.7128 0003475 266.0296  94.0502 15.69927916  8612,6737.24,91.724,361.446,356.764,0.0
56484.0,STARLINK-6221,PAYLOAD,2023-07-03 11:47:18,15.69925699,0.0003329,69.9993,94.1299,263.515,96.5666,1.3223e-05,1.378e-05,0.0,0 STARLINK-6221,1 56484U 23064AN  23184.49118890  .00001378  00000-0  13223-4 0  9994,2 56484  69.9993  94.1299 0003329 263.5150  96.5666 15.69925699  8813,6737.247,91.724,361.354,356.869,0.0
56484.0,STARLINK-6221,PAYLOAD,2023-07-05 00:29:21,15.69924522,0.0003564,69.9989,89.8303,261.6487,98.4305,1.1757e-05,1.201e-05,0.0,0 STARLINK-6221,1 56484U 23064AN  23186.02039128  .00001201  00000-0  11757-4 0  9996,2 56484  69.9989  89.8303 0003564 261.6487  98.4305 15.69924522  9050,6737.25,91.724,361.516,356.714,0.0
56484.0,STARLINK-6221,PAYLOAD,2023-07-06 04:00:53,15.69929297,0.0003454,69.9988,86.6055,260.4038,99.6767,1.9406e-05,2.122e-05,0.0,0 STARLINK-6221,1 56484U 23064AN  23187.16729037  .00002122  00000-0  19406-4 0  9999,2 56484  69.9988  86.6055 0003454 260.4038  99.6767 15.69929297  9234,6737.236,91.724,361.428,356.774,0.0
56484.0,STARLINK-6221,PAYLOAD,2023-07-07 18:14:42,15.69926126,0.0003693,70.0004,82.1295,263.538,96.5396,1.473e-05,1.559e-05,0.0,0 STARLINK-6221,1 56484U 23064AN  23188.76021027  .00001559  00000-0  14730-4 0  9998,2 56484  70.0004  82.1295 0003693 263.5380  96.5396 15.69926126  9481,6737.245,91.724,361.598,356.622,0.0
56484.0,STARLINK-6221,PAYLOAD,2023-07-08 20:14:29,15.69905519,0.0003126,70.0011,79.0819,259.9823,100.102,-3.9503e-05,-4.956e-05,0.0,0 STARLINK-6221,1 56484U 23064AN  23189.84340034 -.00004956  00000-0 -39503-4 0  9991,2 56484  70.0011  79.0819 0003126 259.9823 100.1020 15.69905519  9656,6737.304,91.725,361.275,357.063,0.0
56484.0,STARLINK-6221,PAYLOAD,2023-07-09 02:21:30,15.69914906,0.0002936,70.0003,78.3647,261.8067,98.2796,-1.4761e-06,-3.9e-06,0.0,0 STARLINK-6221,1 56484U 23064AN  23190.09826730 -.00000390  00000-0 -14761-5 0  9990,2 56484  70.0003  78.3647 0002936 261.8067  98.2796 15.69914906  9699,6737.277,91.725,361.121,357.164,0.0
56484.0,STARLINK-6221,PAYLOAD,2023-07-09 19:10:46,15.69925752,0.0003523,69.9986,76.3944,262.7805,97.299,3.9173e-05,4.5e-05,0.0,0 STARLINK-6221,1 56484U 23064AN  23190.79914919  .00004500  00000-0  39173-4 0  9992,2 56484  69.9986  76.3944 0003523 262.7805  97.2990 15.69925752  9806,6737.246,91.724,361.485,356.738,0.0
56484.0,STARLINK-6221,PAYLOAD,2023-07-11 01:45:48,15.69931066,0.0003891,69.9993,72.8121,263.4863,96.589,3.8833e-05,4.461e-05,0.0,0 STARLINK-6221,1 56484U 23064AN  23192.07347820  .00004461  00000-0  38833-4 0  9994,2 56484  69.9993  72.8121 0003891 263.4863  96.5890 15.69931066 10002,6737.231,91.724,361.718,356.475,0.0
56484.0,STARLINK-6221,PAYLOAD,2023-07-11 20:06:50,15.69928415,0.0002711,69.9993,70.6604,287.0836,73.0063,2.6863e-05,3.019e-05,0.0,0 STARLINK-6221,1 56484U 23064AN  23192.83808453  .00003019  00000-0  26863-4 0  9990,2 56484  69.9993  70.6604 0002711 287.0836  73.0063 15.69928415 10125,6737.239,91.724,360.93,357.277,0.0
56484.0,STARLINK-6221,PAYLOAD,2023-07-13 16:27:38,15.69926101,0.0003953,70.0002,65.4664,264.707,95.3674,8.2534e-06,7.8e-06,0.0,0 STARLINK-6221,1 56484U 23064AN  23194.68586594  .00000780  00000-0  82534-5 0  9994,2 56484  70.0002  65.4664 0003953 264.7070  95.3674 15.69926101 10415,6737.245,91.724,361.774,356.447,0.0
56484.0,STARLINK-6221,PAYLOAD,2023-07-13 17:59:23,15.69934467,0.0004159,70.0003,65.2869,274.5677,85.5043,3.7829e-05,4.34e-05,0.0,0 STARLINK-6221,1 56484U 23064AN  23194.74958127  .00004340  00000-0  37829-4 0  9998,2 56484  70.0003  65.2869 0004159 274.5677  85.5043 15.69934467 10428,6737.221,91.724,361.888,356.284,0.0
56484.0,STARLINK-6221,PAYLOAD,2023-07-14 01:38:10,15.69910509,0.000349,70.0006,64.3914,279.0818,80.9983,-2.7812e-05,-3.554e-05,0.0,0 STARLINK-6221,1 56484U 23064AN  23195.06817149 -.00003554  00000-0 -27812-4 0  9991,2 56484  70.0006  64.3914 0003490 279.0818  80.9983 15.69910509 10474,6737.29,91.725,361.506,356.804,0.0
56484.0,STARLINK-6221,PAYLOAD,2023-07-14 16:55:40,15.69929284,0.0003609,69.9999,62.5988,266.1759,93.9024,2.0503e-05,2.254e-05,0.0,0 STARLINK-6221,1 56484U 23064AN  23195.70533313  .00002254  00000-0  20503-4 0  9994,2 56484  69.9999  62.5988 0003609 266.1759  93.9024 15.69929284 10577,6737.236,91.724,361.533,356.67,0.0
56484.0,STARLINK-6221,PAYLOAD,2023-07-15 00:34:26,15.69913571,0.0003224,70.0002,61.7043,266.984,93.0987,-2.58e-05,-3.312e-05,0.0,0 STARLINK-6221,1 56484U 23064AN  23196.02391933 -.00003312  00000-0 -25800-4 0  9993,2 56484  70.0002  61.7043 0003224 266.9840  93.0987 15.69913571 10627,6737.281,91.725,361.318,356.974,0.0
56484.0,STARLINK-6221,PAYLOAD,2023-07-15 17:23:42,15.69922731,0.0003419,69.9999,59.7328,267.3381,92.7423,4.8849e-06,3.75e-06,0.0,0 STARLINK-6221,1 56484U 23064AN  23196.72480120  .00000375  00000-0  48849-5 0  9990,2 56484  69.9999  59.7328 0003419 267.3381  92.7423 15.69922731 10734,6737.255,91.724,361.424,356.817,0.0
56484.0,STARLINK-6221,PAYLOAD,2023-07-16 23:58:46,15.69902092,0.0003311,69.9991,56.1484,270.4875,89.5941,-5.2106e-05,-6.467e-05,0.0,0 STARLINK-6221,1 56484U 23064AN  23197.99914449 -.00006467  00000-0 -52106-4 0  9996,2 56484  69.9991  56.1484 0003311 270.4875  89.5941 15.69902092 10933,6737.314,91.725,361.41,356.948,0.0
56484.0,STARLINK-6221,PAYLOAD,2023-07-17 16:48:01,15.69949006,0.0004091,70.0001,54.179,273.4973,86.5755,0.00012075,0.00014348,0.0,0 STARLINK-6221,1 56484U 23064AN  23198.70001664  .00014348  00000-0  12075-3 0  9997,2 56484  70.0001  54.1790 0004091 273.4973  86.5755 15.69949006 11043,6737.18,91.723,361.801,356.289,0.0
56484.0,STARLINK-6221,PAYLOAD,2023-07-18 00:26:47,15.69927367,0.0003194,69.9985,53.2824,277.0246,83.0586,3.9107e-05,4.493e-05,0.0,0 STARLINK-6221,1 56484U 23064AN  23199.01860650  .00004493  00000-0  39107-4 0  9996,2 56484  69.9985  53.2824 0003194 277.0246  83.0586 15.69927367 11090,6737.242,91.724,361.259,356.955,0.0
56484.0,STARLINK-6221,PAYLOAD,2023-07-19 00:54:49,15.69926312,0.0004337,69.9997,50.4203,276.1991,83.871,1.464e-05,1.548e-05,0.0,0 STARLINK-6221,1 56484U 23064AN  23200.03806922  .00001548  00000-0  14640-4 0  9996,2 56484  69.9997  50.4203 0004337 276.1991  83.8710 15.69926312 11254,6737.245,91.724,362.032,356.188,0.0
56484.0,STARLINK-6221,PAYLOAD,2023-07-19 16:12:21,15.69919275,0.0003169,70.0016,48.6262,272.4225,87.6608,4.5439e-05,5.253e-05,0.0,0 STARLINK-6221,1 56484U 23064AN  23200.67524411  .00005253  00000-0  45439-4 0  9993,2 56484  70.0016  48.6262 0003169 272.4225  87.6608 15.69919275 11353,6737.265,91.724,361.265,356.995,0.0
